GAOFEN-11 01            
1 43585U 18063A   26178.98138600  .00009493  00000+0  14004-3 0  9998
2 43585  97.1294 245.8310 0002055 300.7245  59.3807 15.55583726442026
ICESAT-2                
1 43613U 18070A   26178.89346719  .00009038  00000+0  32867-3 0  9992
2 43613  92.0086 293.8713 0006238  95.0842 265.1120 15.28212813434094
HYSIS                   
1 43719U 18096A   26178.97119685  .00000977  00000+0  14043-3 0  9995
2 43719  97.9841 245.6347 0001861  92.1678 267.9746 14.78637728409012
KAZSTSAT                
1 43783U 18099AB  26178.63827080  .00001919  00000+0  15917-3 0  9995
2 43783  97.4290 210.0926 0008544  41.0079 319.1786 14.99901651412872
SAUDISAT 5A             
1 43831U 18102A   26178.96953957  .00005721  00000+0  21076-3 0  9991
2 43831  97.3068 240.3428 0011298  96.5064 263.7462 15.28156382417326
SAUDISAT 5B             
1 43833U 18102C   26178.98659118  .00005442  00000+0  19906-3 0  9996
2 43833  97.3177 243.4488 0012040  98.2133 262.0473 15.28407402417440
GAOFEN-10R              
1 44622U 19066A   26178.94900773  .00001133  00000+0  14607-3 0  9991
2 44622  98.0501 132.6066 0007162  97.3532 262.8495 14.83022370363976
CARTOSAT-3              
1 44804U 19081A   26178.89301700  .00002487  00000+0  12116-3 0  9995
2 44804  97.4310 240.5876 0013387 114.1184 246.1453 15.19209715365098
GAOFEN-12 01            
1 44819U 19082A   26178.96134185  .00000379  00000+0  56147-4 0  9992
2 44819  97.8101 185.0563 0001870  59.0674 301.0722 14.80466784355689
CSG-1                   
1 44873U 19092A   26178.92052829  .00000397  00000+0  56393-4 0  9996
2 44873  97.8889   2.3676 0001465  90.0753 270.0628 14.82161817353062
NEMO-HD                 
1 46277U 20061F   26178.94807799  .00010308  00000+0  22190-3 0  9990
2 46277  97.1922 240.7930 0001727  74.4575 285.6864 15.44805974323646
SENTINEL-6A             
1 46984U 20086A   26178.85996259 -.00000077  00000+0 -67789-4 0  9990
2 46984  66.0409 112.8854 0007845 269.9918  90.0198 12.80929981261695
CAS500-1                
1 47932U 21022A   26178.98992287  .00006454  00000+0  30104-3 0  9999
2 47932  97.3896  74.0246 0003630 241.8510 118.2358 15.20192975292401
GAOFEN-12 02            
1 48079U 21026A   26178.97355747  .00000361  00000+0  54322-4 0  9999
2 48079  97.9923 177.1101 0004506 181.9666 178.1528 14.80303974283351
PLEIADES NEO 3          
1 48268U 21034A   26178.92327895 -.00000287  00000+0 -29865-4 0  9999
2 48268  97.8939 253.5352 0001406  88.0199 272.1175 14.81671367279249
PLEIADES NEO 4          
1 49070U 21073E   26178.95703275  .00000939  00000+0  12593-3 0  9998
2 49070  97.8937 253.5647 0001326  90.9101 269.2264 14.81670021262965
LANDSAT 9               
1 49260U 21088A   26178.90904987  .00000319  00000+0  80811-4 0  9994
2 49260  98.2278 248.9566 0001250  85.4141 274.7200 14.57104062252562
CSG-2                   
1 51444U 22008A   26178.95426784  .00000932  00000+0  12365-3 0  9992
2 51444  97.8886   2.3962 0001586  85.8623 274.2772 14.82154336238180
GAOFEN-12 03            
1 52912U 22069A   26178.93776590  .00001128  00000+0  15561-3 0  9990
2 52912  97.8276  66.5370 0002409  92.2692 267.8797 14.80052119216200
SWOT                    
1 54754U 22173A   26178.92075557  .00000009  00000+0  76071-5 0  9998
2 54754  77.6102  20.8196 0000291  83.5278 276.5907 14.00170792180658
GAOFEN-12 04            
1 57654U 23123A   26178.95397050  .00000954  00000+0  13377-3 0  9991
2 57654  97.9116  96.8153 0003971  84.8697 275.2968 14.79745660154228
PARS 1                  
1 59065U 24039Q   26178.93065186  .00011192  00000+0  23120-3 0  9999
2 59065  97.4819 160.1901 0011445  80.1984 280.0557 15.45943808130309
RESURS-P 4              
1 59371U 24061A   26178.97395451  .00003054  00000+0  10072-3 0  9999
2 59371  97.2753 126.6850 0002829 113.9969 246.1569 15.32190156125416
LEGION 1                
1 59625U 24081A   26178.91487753  .00003596  00000+0  18668-3 0  9994
2 59625  97.5021 256.6574 0008468 339.8041  20.2856 15.16736400119166
LEGION 2                
1 59626U 24081B   26178.94500952  .00003649  00000+0  18944-3 0  9991
2 59626  97.5022 256.7844 0009974 302.3649  57.6618 15.16715683119172
ALOS-4 (DAICHI-4)       
1 60182U 24123A   26178.91214343  .00001431  00000+0  19840-3 0  9993
2 60182  97.9218 275.9343 0001570  96.3351 263.8039 14.79479138107460
LEGION 3                
1 60452U 24146A   26178.87125589  .00003934  00000+0  21453-3 0  9999
2 60452  45.0022 333.2530 0008658 231.7686 128.2414 15.16029288103649
LEGION 4                
1 60453U 24146B   26178.80847627  .00004162  00000+0  22550-3 0  9990
2 60453  45.0020  65.4991 0012556   6.3663 353.7373 15.16111449102487
SENTINEL-2C             
1 60989U 24157A   26178.80190574  .00000097  00000+0  53753-4 0  9991
2 60989  98.5692 253.4339 0000915  89.9131 270.2157 14.30820516 94500
IONOSFERA-M 1           
1 61735U 24199A   26178.95365230  .00000055  00000+0  44277-4 0  9991
2 61735  98.7161  52.0116 0002159  96.0167 264.1257 14.22756140129233
