OBJECT_NAME,OBJECT_ID,EPOCH,MEAN_MOTION,ECCENTRICITY,INCLINATION,RA_OF_ASC_NODE,ARG_OF_PERICENTER,MEAN_ANOMALY,EPHEMERIS_TYPE,CLASSIFICATION_TYPE,NORAD_CAT_ID,ELEMENT_SET_NO,REV_AT_EPOCH,BSTAR,MEAN_MOTION_DOT,MEAN_MOTION_DDOT
GAOFEN-11 01,2018-063A,2026-06-27T23:33:11.750400,15.55583726,.00020559,97.1294,245.8310,300.7245,59.3807,0,U,43585,999,44202,.14004158E-3,.9493E-4,0
ICESAT-2,2018-070A,2026-06-27T21:26:35.565216,15.28212813,.0006238,92.0086,293.8713,95.0842,265.1120,0,U,43613,999,43409,.32867462E-3,.9038E-4,0
HYSIS,2018-096A,2026-06-27T23:18:31.407840,14.78637728,.00018617,97.9841,245.6347,92.1678,267.9746,0,U,43719,999,40901,.14042564E-3,.977E-5,0
KAZSTSAT,2018-099AB,2026-06-27T15:19:06.597120,14.99901651,.00085447,97.4290,210.0926,41.0079,319.1786,0,U,43783,999,41287,.1591701E-3,.1919E-4,0
SAUDISAT 5A,2018-102A,2026-06-27T23:16:08.218848,15.28156382,.00112982,97.3068,240.3428,96.5064,263.7462,0,U,43831,999,41732,.21075738E-3,.5721E-4,0
SAUDISAT 5B,2018-102C,2026-06-27T23:40:41.477952,15.28407402,.00120404,97.3177,243.4488,98.2133,262.0473,0,U,43833,999,41744,.19906346E-3,.5442E-4,0
GAOFEN-10R,2019-066A,2026-06-27T22:46:34.267872,14.83022370,.00071624,98.0501,132.6066,97.3532,262.8495,0,U,44622,999,36397,.14607399E-3,.1133E-4,0
CARTOSAT-3,2019-081A,2026-06-27T21:25:56.668800,15.19209715,.00133877,97.4310,240.5876,114.1184,246.1453,0,U,44804,999,36509,.12116014E-3,.2487E-4,0
GAOFEN-12 01,2019-082A,2026-06-27T23:04:19.935840,14.80466784,.00018702,97.8101,185.0563,59.0674,301.0722,0,U,44819,999,35568,.56147187E-4,.379E-5,0
CSG-1,2019-092A,2026-06-27T22:05:33.644256,14.82161817,.00014655,97.8889,2.3676,90.0753,270.0628,0,U,44873,999,35306,.56392773E-4,.397E-5,0
NEMO-HD,2020-061F,2026-06-27T22:45:13.938336,15.44805974,.00017275,97.1922,240.7930,74.4575,285.6864,0,U,46277,999,32364,.22189584E-3,.10308E-3,0
SENTINEL-6A,2020-086A,2026-06-27T20:38:20.767776,12.80929981,.00078451,66.0409,112.8854,269.9918,90.0198,0,U,46984,999,26169,-.67788511E-4,-.77E-6,0
CAS500-1,2021-022A,2026-06-27T23:45:29.335968,15.20192975,.00036303,97.3896,74.0246,241.8510,118.2358,0,U,47932,999,29240,.30103605E-3,.6454E-4,0
GAOFEN-12 02,2021-026A,2026-06-27T23:21:55.365408,14.80303974,.00045065,97.9923,177.1101,181.9666,178.1528,0,U,48079,999,28335,.5432209E-4,.361E-5,0
PLEIADES NEO 3,2021-034A,2026-06-27T22:09:31.301280,14.81671367,.00014064,97.8939,253.5352,88.0199,272.1175,0,U,48268,999,27924,-.29865266E-4,-.287E-5,0
PLEIADES NEO 4,2021-073E,2026-06-27T22:58:07.629600,14.81670021,.00013262,97.8937,253.5647,90.9101,269.2264,0,U,49070,999,26296,.12592768E-3,.939E-5,0
LANDSAT 9,2021-088A,2026-06-27T21:49:01.908768,14.57104062,.00012502,98.2278,248.9566,85.4141,274.7200,0,U,49260,999,25256,.80810636E-4,.319E-5,0
CSG-2,2022-008A,2026-06-27T22:54:08.741376,14.82154336,.00015866,97.8886,2.3962,85.8623,274.2772,0,U,51444,999,23818,.12364671E-3,.932E-5,0
GAOFEN-12 03,2022-069A,2026-06-27T22:30:22.973760,14.80052119,.00024094,97.8276,66.5370,92.2692,267.8797,0,U,52912,999,21620,.15560894E-3,.1128E-4,0
SWOT,2022-173A,2026-06-27T22:05:53.281248,14.00170792,.00002919,77.6102,20.8196,83.5278,276.5907,0,U,54754,999,18065,.7607147E-5,.9E-7,0
GAOFEN-12 04,2023-123A,2026-06-27T22:53:43.051200,14.79745660,.00039716,97.9116,96.8153,84.8697,275.2968,0,U,57654,999,15422,.13377292E-3,.954E-5,0
PARS 1,2024-039Q,2026-06-27T22:20:08.320704,15.45943808,.00114456,97.4819,160.1901,80.1984,280.0557,0,U,59065,999,13030,.2311963E-3,.11192E-3,0
RESURS-P 4,2024-061A,2026-06-27T23:22:29.669664,15.32190156,.00028294,97.2753,126.6850,113.9969,246.1569,0,U,59371,999,12541,.10072024E-3,.3054E-4,0
LEGION 1,2024-081A,2026-06-27T21:57:25.418592,15.16736400,.00084688,97.5021,256.6574,339.8041,20.2856,0,U,59625,999,11916,.18667508E-3,.3596E-4,0
LEGION 2,2024-081B,2026-06-27T22:40:48.822528,15.16715683,.00099747,97.5022,256.7844,302.3649,57.6618,0,U,59626,999,11917,.18943544E-3,.3649E-4,0
ALOS-4 (DAICHI-4),2024-123A,2026-06-27T21:53:29.192352,14.79479138,.000157,97.9218,275.9343,96.3351,263.8039,0,U,60182,999,10746,.19840291E-3,.1431E-4,0
LEGION 3,2024-146A,2026-06-27T20:54:36.508896,15.16029288,.00086588,45.0022,333.2530,231.7686,128.2414,0,U,60452,999,10364,.21452684E-3,.3934E-4,0
LEGION 4,2024-146B,2026-06-27T19:24:12.349728,15.16111449,.00125565,45.0020,65.4991,6.3663,353.7373,0,U,60453,999,10248,.22550061E-3,.4162E-4,0
SENTINEL-2C,2024-157A,2026-06-27T19:14:44.655936,14.30820516,.00009153,98.5692,253.4339,89.9131,270.2157,0,U,60989,999,9450,.53753188E-4,.97E-6,0
IONOSFERA-M 1,2024-199A,2026-06-27T22:53:15.558720,14.22756140,.00021598,98.7161,52.0116,96.0167,264.1257,0,U,61735,999,12923,.44277054E-4,.55E-6,0
